[{"OBJECT_NAME":"STARLINK-32691","OBJECT_ID":"2025-003Q","EPOCH":"2026-03-09T23:05:22.700256","MEAN_MOTION":15.27604405,"ECCENTRICITY":5.889e-5,"INCLINATION":43.0004,"RA_OF_ASC_NODE":287.389,"ARG_OF_PERICENTER":6.0113,"MEAN_ANOMALY":354.0745,"EPHEMERIS_TYPE":0,"CLASSIFICATION_TYPE":"U","NORAD_CAT_ID":62501,"ELEMENT_SET_NO":999,"REV_AT_EPOCH":6670,"BSTAR":0.0012775534,"MEAN_MOTION_DOT":0.00035087,"MEAN_MOTION_DDOT":0},{"OBJECT_NAME":"TROLL","OBJECT_ID":"2025-009BB","EPOCH":"2026-03-09T05:24:19.835712","MEAN_MOTION":15.28164315,"ECCENTRICITY":0.00018165,"INCLINATION":97.3932,"RA_OF_ASC_NODE":150.7169,"ARG_OF_PERICENTER":59.185,"MEAN_ANOMALY":300.9568,"EPHEMERIS_TYPE":0,"CLASSIFICATION_TYPE":"U","NORAD_CAT_ID":62658,"ELEMENT_SET_NO":999,"REV_AT_EPOCH":11817,"BSTAR":0.00048220305,"MEAN_MOTION_DOT":0.00013174,"MEAN_MOTION_DDOT":0}]
